{
  "norad_id": 67191,
  "name": "STARLINK-35716",
  "history": [
    {
      "epoch": "2026-03-28T08:19:49.207584",
      "apogee_km": 483.3052472932659,
      "perigee_km": 482.7232844428936,
      "latitude_deg": 39.806912604574784,
      "longitude_deg": -147.57865823991597,
      "semi_major_axis_km": 6861.1512658680795,
      "eccentricity": 4.241e-05,
      "inclination_deg": 43.002,
      "raan_deg": 205.7697,
      "arg_perigee_deg": 194.293,
      "mean_anomaly_deg": 165.791,
      "mean_motion_rev_day": 15.27591632
    }
  ]
}