{"fetched_at":"2026-03-30T06:02:59Z","count":15439,"tles":[{"name":"STARLINK-35716","line1":"1 67191U 25303AE  26087.34709731  .00032403  00000+0  11814-2 0  9992","line2":"2 67191  43.0020 205.7697 0000424 194.2930 165.7910 15.27591632 15588","category":"Starlink"}]}